LEMUR-2-ROUNDTRIPPER    
1 62711U 25009DG  26195.50427577  .00005027  00000+0  36603-3 0  9997
2 62711  97.7255 278.1496 0004426  65.0784 295.0901 15.04225621 81730
LEMUR-2-MYNAMEISJEFF    
1 62712U 25009DH  26195.50275856  .00004900  00000+0  35697-3 0  9990
2 62712  97.7303 278.5456 0003997  99.0946 261.0732 15.04216644 81734
LEMUR-2-LEIA-PHILIP     
1 63246U 25052AN  26195.60204524  .00000257  00000+0  27021-4 0  9990
2 63246  97.6807  87.0882 0005077 120.6293 239.5430 14.97391206 72776
LEMUR-2-LIA-MARTIN      
1 63248U 25052AQ  26195.46326101  .00002401  00000+0  20807-3 0  9999
2 63248  97.6872  87.4693 0005350  91.5712 268.6123 14.98027227 72761
LEMUR-2-DELOITTE-1      
1 63259U 25052BB  26195.57720823  .00002290  00000+0  19999-3 0  9998
2 63259  97.6882  87.9117 0002522  65.6564 294.4922 14.97778954 72791
LEMUR-2-EMERSONROSE     
1 63261U 25052BD  26195.52527143  .00002788  00000+0  23317-3 0  9997
2 63261  97.6886  88.4722 0002747  62.0180 298.1321 14.99287295 72834
LEMUR-2-MARACHE-FRAN    
1 63262U 25052BE  26195.61513191  .00001779  00000+0  14663-3 0  9999
2 63262  97.6839  88.9284 0005106 254.3317 105.7343 15.00313292 72872
LEMUR-2-THEFALCONER     
1 63264U 25052BG  26195.27348942  .00001077  00000+0  97224-4 0  9999
2 63264  97.6836  87.2046 0000305 321.1479  38.9721 14.97561557 72744
LEMUR-2-UNTITLED-SC     
1 63351U 25061A   26195.45873638  .00001741  00000+0  10020-3 0  9997
2 63351  97.5651 170.6269 0019169 165.5160 194.6625 15.13643819 71714
LEMUR-2-ESPERANZA       
1 63352U 25061B   26195.50022648  .00001704  00000+0  97884-4 0  9994
2 63352  97.5658 170.7681 0018781 164.5409 195.6399 15.13749717 71729
LEMUR-2-KREMPEL-BRO2    
1 63353U 25061C   26195.51939314  .00001626  00000+0  92418-4 0  9994
2 63353  97.5704 171.3553 0019914 157.5072 202.7037 15.14176202 71749
LEMUR-2-THERMORAPTOR    
1 63354U 25061D   26195.43390754  .00001875  00000+0  10578-3 0  9997
2 63354  97.5710 171.3512 0019668 156.6206 203.5924 15.14258710 71735
LEMUR-2-NEUROSPICY      
1 63355U 25061E   26195.46955695  .00002143  00000+0  12008-3 0  9991
2 63355  97.5637 170.9919 0017414 159.3437 200.8503 15.14377964 71740
LEMUR-2-TILLINFINITY    
1 63356U 25061F   26195.42825798  .00002056  00000+0  11343-3 0  9992
2 63356  97.5624 171.2604 0018987 148.3059 211.9321 15.14961249 71764
LEMUR-2-KREMPEL-BRO1    
1 63357U 25061G   26195.47126910  .00002155  00000+0  11932-3 0  9992
2 63357  97.5623 171.2115 0019621 149.6135 210.6238 15.14769013 71764
LEMUR-2-LANGER2SPACE    
1 63358U 25061H   26195.50324899  .00001820  00000+0  10232-3 0  9993
2 63358  97.5629 171.0464 0017370 157.5082 202.6915 15.14462381 71754
LEMUR-2-BALTO           
1 63395U 25052BH  26195.53282168  .00002636  00000+0  21469-3 0  9999
2 63395  97.6931  88.8340 0005158 330.5078  29.5854 15.00360542 72861
LEMUR-2-KRISH           
1 64561U 25135AK  26195.29112395  .00001935  00000+0  17576-3 0  9999
2 64561  97.7772 309.9867 0001390  95.6584 264.4796 14.96445154 57974
LEMUR-2-HUBBLE-4        
1 64565U 25135AP  26195.27031671  .00001020  00000+0  10180-3 0  9997
2 64565  97.7719 308.8623 0002598 164.5428 195.5872 14.93684338 57910
LEMUR-2-SEJONG-2        
1 64586U 25135BL  26195.57982138  .00002111  00000+0  18901-3 0  9997
2 64586  97.7707 310.4192 0003944 221.5905 138.5017 14.96908727 58047
LEMUR-2-HUBBLE-5        
1 64840U 25135BT  26195.27947831  .00000860  00000+0  85597-4 0  9993
2 64840  97.7739 309.5394 0004270 239.0062 121.0739 14.94212295 57952
LEMUR-2-KARENDARRELL    
1 64841U 25135BU  26195.59628300  .00004184  00000+0  33642-3 0  9992
2 64841  97.7716 311.7681 0012370 106.6512 253.6071 15.00494314 58124
LEMUR-2-LUCILLE-ROSE    
1 65403U 25135BV  26195.56972983  .00003441  00000+0  27749-3 0  9999
2 65403  97.7711 311.7768 0014857 190.8581 169.2324 15.00484201 52742
LEMUR-2-AFFIE-WAUWIE    
1 66295U 25248C   26195.38884985  .00012991  00000+0  47322-3 0  9997
2 66295  45.3893 327.4899 0008759 246.6108 113.3860 15.28229453 38756
OTTER SDM               
1 66678U 25276N   26195.17573471  .00003505  00000+0  16568-3 0  9994
2 66678  97.4208 268.2073 0004268 258.7712 101.3043 15.20049880 34517
LEMUR-2-STAS-GORBUK     
1 66686U 25276W   26195.46028634  .00002932  00000+0  14072-3 0  9992
2 66686  97.4241 268.5390 0003585 251.3756 108.7089 15.19654394 34551
LEMUR-2-TEODOR          
1 66768U 25276DG  26195.15100473  .00003426  00000+0  15612-3 0  9991
2 66768  97.4147 268.5054 0002249  89.0429 271.1065 15.21330418 34542
LEMUR-2-LAILA           
1 66776U 25276DQ  26195.18672460  .00003079  00000+0  13970-3 0  9992
2 66776  97.4170 268.6786 0002890  95.5608 264.5957 15.21556874 34556
LEMUR-2-CELIJO-SB-PK    
1 66781U 25276DW  26195.45122616  .00002782  00000+0  22655-3 0  9991
2 66781  97.5200 265.3291 0007029  66.1320 294.0640 15.00279270 26711
