OBJECT_NAME,OBJECT_ID,EPOCH,MEAN_MOTION,ECCENTRICITY,INCLINATION,RA_OF_ASC_NODE,ARG_OF_PERICENTER,MEAN_ANOMALY,EPHEMERIS_TYPE,CLASSIFICATION_TYPE,NORAD_CAT_ID,ELEMENT_SET_NO,REV_AT_EPOCH,BSTAR,MEAN_MOTION_DOT,MEAN_MOTION_DDOT
LEMUR-2-ROUNDTRIPPER,2025-009DG,2026-07-14T12:06:09.426528,15.04225621,.0004426,97.7255,278.1496,65.0784,295.0901,0,U,62711,999,8173,.36602578E-3,.5027E-4,0
LEMUR-2-MYNAMEISJEFF,2025-009DH,2026-07-14T12:03:58.339584,15.04216644,.00039974,97.7303,278.5456,99.0946,261.0732,0,U,62712,999,8173,.35697241E-3,.49E-4,0
LEMUR-2-LEIA-PHILIP,2025-052AN,2026-07-14T14:26:56.708736,14.97391206,.00050773,97.6807,87.0882,120.6293,239.5430,0,U,63246,999,7277,.27020577E-4,.257E-5,0
LEMUR-2-LIA-MARTIN,2025-052AQ,2026-07-14T11:07:05.751264,14.98027227,.00053501,97.6872,87.4693,91.5712,268.6123,0,U,63248,999,7276,.20806656E-3,.2401E-4,0
LEMUR-2-DELOITTE-1,2025-052BB,2026-07-14T13:51:10.791072,14.97778954,.00025226,97.6882,87.9117,65.6564,294.4922,0,U,63259,999,7279,.19999399E-3,.229E-4,0
LEMUR-2-EMERSONROSE,2025-052BD,2026-07-14T12:36:23.451552,14.99287295,.00027477,97.6886,88.4722,62.0180,298.1321,0,U,63261,999,7283,.23317097E-3,.2788E-4,0
LEMUR-2-MARACHE-FRAN,2025-052BE,2026-07-14T14:45:47.397024,15.00313292,.00051062,97.6839,88.9284,254.3317,105.7343,0,U,63262,999,7287,.14662799E-3,.1779E-4,0
LEMUR-2-THEFALCONER,2025-052BG,2026-07-14T06:33:49.485888,14.97561557,.00003053,97.6836,87.2046,321.1479,38.9721,0,U,63264,999,7274,.97223601E-4,.1077E-4,0
LEMUR-2-UNTITLED-SC,2025-061A,2026-07-14T11:00:34.823232,15.13643819,.00191698,97.5651,170.6269,165.5160,194.6625,0,U,63351,999,7171,.10020037E-3,.1741E-4,0
LEMUR-2-ESPERANZA,2025-061B,2026-07-14T12:00:19.567872,15.13749717,.0018781,97.5658,170.7681,164.5409,195.6399,0,U,63352,999,7172,.97883517E-4,.1704E-4,0
LEMUR-2-KREMPEL-BRO2,2025-061C,2026-07-14T12:27:55.567296,15.14176202,.00199144,97.5704,171.3553,157.5072,202.7037,0,U,63353,999,7174,.92418035E-4,.1626E-4,0
LEMUR-2-THERMORAPTOR,2025-061D,2026-07-14T10:24:49.611456,15.14258710,.00196681,97.5710,171.3512,156.6206,203.5924,0,U,63354,999,7173,.10577864E-3,.1875E-4,0
LEMUR-2-NEUROSPICY,2025-061E,2026-07-14T11:16:09.720480,15.14377964,.00174141,97.5637,170.9919,159.3437,200.8503,0,U,63355,999,7174,.12007754E-3,.2143E-4,0
LEMUR-2-TILLINFINITY,2025-061F,2026-07-14T10:16:41.489472,15.14961249,.00189874,97.5624,171.2604,148.3059,211.9321,0,U,63356,999,7176,.11343198E-3,.2056E-4,0
LEMUR-2-KREMPEL-BRO1,2025-061G,2026-07-14T11:18:37.650240,15.14769013,.0019621,97.5623,171.2115,149.6135,210.6238,0,U,63357,999,7176,.11931782E-3,.2155E-4,0
LEMUR-2-LANGER2SPACE,2025-061H,2026-07-14T12:04:40.712736,15.14462381,.00173702,97.5629,171.0464,157.5082,202.6915,0,U,63358,999,7175,.10232003E-3,.182E-4,0
LEMUR-2-BALTO,2025-052BH,2026-07-14T12:47:15.793152,15.00360542,.00051589,97.6931,88.8340,330.5078,29.5854,0,U,63395,999,7286,.21468634E-3,.2636E-4,0
LEMUR-2-KRISH,2025-135AK,2026-07-14T06:59:13.109280,14.96445154,.00013907,97.7772,309.9867,95.6584,264.4796,0,U,64561,999,5797,.17575838E-3,.1935E-4,0
LEMUR-2-HUBBLE-4,2025-135AP,2026-07-14T06:29:15.363744,14.93684338,.00025982,97.7719,308.8623,164.5428,195.5872,0,U,64565,999,5791,.10180107E-3,.102E-4,0
LEMUR-2-SEJONG-2,2025-135BL,2026-07-14T13:54:56.567232,14.96908727,.00039447,97.7707,310.4192,221.5905,138.5017,0,U,64586,999,5804,.18901451E-3,.2111E-4,0
LEMUR-2-HUBBLE-5,2025-135BT,2026-07-14T06:42:26.925984,14.94212295,.000427,97.7739,309.5394,239.0062,121.0739,0,U,64840,999,5795,.85597083E-4,.86E-5,0
LEMUR-2-KARENDARRELL,2025-135BU,2026-07-14T14:18:38.851200,15.00494314,.00123705,97.7716,311.7681,106.6512,253.6071,0,U,64841,999,5812,.33642249E-3,.4184E-4,0
LEMUR-2-LUCILLE-ROSE,2025-135BV,2026-07-14T13:40:24.657312,15.00484201,.0014857,97.7711,311.7768,190.8581,169.2324,0,U,65403,999,5274,.27749022E-3,.3441E-4,0
LEMUR-2-AFFIE-WAUWIE,2025-248C,2026-07-14T09:19:56.627040,15.28229453,.00087596,45.3893,327.4899,246.6108,113.3860,0,U,66295,999,3875,.47322499E-3,.12991E-3,0
OTTER SDM,2025-276N,2026-07-14T04:13:03.478944,15.20049880,.00042681,97.4208,268.2073,258.7712,101.3043,0,U,66678,999,3451,.16567661E-3,.3505E-4,0
LEMUR-2-STAS-GORBUK,2025-276W,2026-07-14T11:02:48.739776,15.19654394,.00035857,97.4241,268.5390,251.3756,108.7089,0,U,66686,999,3455,.14071503E-3,.2932E-4,0
LEMUR-2-TEODOR,2025-276DG,2026-07-14T03:37:26.808672,15.21330418,.00022497,97.4147,268.5054,89.0429,271.1065,0,U,66768,999,3454,.1561249E-3,.3426E-4,0
LEMUR-2-LAILA,2025-276DQ,2026-07-14T04:28:53.005440,15.21556874,.00028905,97.4170,268.6786,95.5608,264.5957,0,U,66776,999,3455,.13970026E-3,.3079E-4,0
LEMUR-2-CELIJO-SB-PK,2025-276DW,2026-07-14T10:49:45.940224,15.00279270,.00070296,97.5200,265.3291,66.1320,294.0640,0,U,66781,999,2671,.22655032E-3,.2782E-4,0
